ONEWEB-0385             
1 49311U 21090AJ  24102.93394446  .00000049  00000+0  87444-4 0  9994
2 49311  87.9167  72.8858 0002204  76.4838 283.6540 13.20769703124698
ONEWEB-0386             
1 49312U 21090AK  24103.40584791  .00003115  00000+0  76284-2 0  9997
2 49312  87.9165  72.7913 0002080  73.0677 287.0684 13.20753986126082
ONEWEB-0387             
1 49313U 21090AL  24102.93552725  .00000085  00000+0  17641-3 0  9993
2 49313  87.9168  72.9430 0002368  83.6543 276.4860 13.20772048124716
ONEWEB-0388             
1 49314U 21090AM  24103.48315385  .00000084  00000+0  17843-3 0  9997
2 49314  87.9101 103.3491 0001920  84.0659 276.0693 13.19725450122751
ONEWEB-0389             
1 50469U 21132A   24102.70436658  .00001080  00000+0  27483-2 0  9995
2 50469  87.9230 164.3564 0002553  98.2015 261.9406 13.17643245113193
ONEWEB-0390             
1 50470U 21132B   24103.54122076  .00000041  00000+0  73451-4 0  9990
2 50470  87.9224 164.1993 0002376 105.5732 254.5662 13.17650376114593
ONEWEB-0391             
1 50471U 21132C   24102.70750638 -.00000047  00000+0 -15442-3 0  9992
2 50471  87.9237 164.3417 0002462  92.5217 267.6197 13.17649821113196
ONEWEB-0392             
1 50472U 21132D   24102.88943210 -.00000431  00000+0 -11441-2 0  9993
2 50472  87.9219 164.3160 0002452  97.4370 262.7040 13.17649243113253
